OBJECT_NAME,OBJECT_ID,EPOCH,MEAN_MOTION,ECCENTRICITY,INCLINATION,RA_OF_ASC_NODE,ARG_OF_PERICENTER,MEAN_ANOMALY,EPHEMERIS_TYPE,CLASSIFICATION_TYPE,NORAD_CAT_ID,ELEMENT_SET_NO,REV_AT_EPOCH,BSTAR,MEAN_MOTION_DOT,MEAN_MOTION_DDOT
STARLINK-30840,2023-170T,2026-07-12T12:00:37.245312,15.27580528,.00013326,43.0030,209.6871,271.7502,88.3197,0,U,58223,999,14938,.13786004E-3,.3533E-4,0
STARLINK-30875,2023-170U,2026-07-12T12:35:33.406944,15.27579368,.0002305,42.9985,209.0095,291.1556,68.9049,0,U,58224,999,14939,.14163E-3,.3637E-4,0
STARLINK-30872,2023-170V,2026-07-13T00:07:31.344096,15.27579610,.00010766,43.0015,64.5967,272.5515,87.5214,0,U,58225,999,15113,.14492568E-4,.137E-5,0
STARLINK-30865,2023-170W,2026-07-13T01:12:35.677152,15.27578755,.00005024,43.0016,195.0407,248.2456,111.8342,0,U,58226,999,14960,.6623439E-5,-.79E-6,0
STARLINK-30874,2023-170X,2026-07-13T01:45:48.817152,15.27579754,.0001082,43.0017,206.2528,259.5887,100.4843,0,U,58227,999,14947,.15242064E-4,.157E-5,0
STARLINK-30871,2023-170Y,2026-07-13T01:51:21.828672,15.27576362,.00013918,43.0018,206.2784,266.9990,93.0703,0,U,58228,999,14947,.24972677E-4,.425E-5,0
STARLINK-30861,2023-171A,2026-07-13T06:33:05.059872,15.33076773,.00106396,42.9900,295.6920,340.2730,19.7711,0,U,58230,999,14894,.10174553E-2,.33128E-3,0
STARLINK-30867,2023-171B,2026-07-13T07:58:57.905760,15.27581398,.00018396,43.0059,295.3620,257.4856,102.5790,0,U,58231,999,14895,.15431639E-4,.162E-5,0
STARLINK-30880,2023-171C,2026-07-13T07:53:25.022112,15.27511875,.00014485,43.0046,295.3363,255.6216,104.4475,0,U,58232,999,14895,-.47433093E-3,-.13264E-3,0
STARLINK-30777,2023-171D,2026-07-13T07:36:58.032576,15.27580281,.00013453,43.0001,296.0964,265.6130,94.4568,0,U,58233,999,14894,.26705608E-4,.473E-5,0
STARLINK-30860,2023-171E,2026-07-13T07:47:51.854208,15.27586817,.00016003,43.0070,295.3070,262.0628,98.0042,0,U,58234,999,14895,-.12881287E-3,-.3806E-4,0
STARLINK-30853,2023-171G,2026-07-13T07:31:25.830624,15.27576127,.00030769,43.0046,296.0813,317.8729,42.1886,0,U,58236,999,14894,-.14730148E-4,-.668E-5,0
STARLINK-30866,2023-171H,2026-07-13T06:50:44.310048,15.27586607,.00025519,42.9979,295.8463,168.1815,191.9097,0,U,58237,999,14894,-.51683739E-4,-.1685E-4,0
STARLINK-30817,2023-171J,2026-07-13T07:25:51.571488,15.27579182,.00015437,43.0020,296.0321,238.6128,121.4573,0,U,58238,999,14894,.19139911E-4,.264E-5,0
STARLINK-30847,2023-171K,2026-07-13T07:20:19.533696,15.27568801,.00012659,42.9991,296.0067,253.9619,106.1093,0,U,58239,999,14894,-.35645092E-4,-.1242E-4,0
STARLINK-30848,2023-171L,2026-07-13T06:52:35.677056,15.27571210,.00014178,43.0054,295.8574,273.5995,86.4695,0,U,58240,999,14894,-.8152438E-5,-.486E-5,0
STARLINK-30843,2023-171M,2026-07-13T07:14:45.816288,15.27577947,.00011734,43.0014,295.9691,272.5703,87.5014,0,U,58241,999,14896,.13963935E-4,.122E-5,0
STARLINK-30877,2023-171N,2026-07-13T06:45:09.415872,15.27583572,.00017081,43.0035,295.8159,245.8719,114.1954,0,U,58242,999,14894,.47535409E-4,.1046E-4,0
STARLINK-30864,2023-171P,2026-07-13T07:05:30.567552,15.27579473,.00014284,42.9995,295.9332,246.5856,113.4846,0,U,58243,999,14884,.10577299E-4,.29E-6,0
STARLINK-30854,2023-171Q,2026-07-13T07:11:03.571296,15.27584694,.00019329,43.0027,295.9618,276.9478,83.1154,0,U,58244,999,14894,.70953898E-4,.1691E-4,0
STARLINK-30849,2023-171R,2026-07-12T18:26:43.971936,15.27568706,.00019055,43.0025,298.8577,274.8558,85.2076,0,U,58245,999,14886,.8740862E-5,-.22E-6,0
STARLINK-30886,2023-171S,2026-07-13T06:48:51.631488,15.27586302,.00009912,43.0041,295.8485,255.5470,104.5272,0,U,58246,999,14894,.57568011E-4,.1323E-4,0
STARLINK-30850,2023-171T,2026-07-12T18:21:09.345600,15.27586331,.00012856,43.0019,298.8277,248.8974,111.1741,0,U,58247,999,14886,.66147382E-4,.1559E-4,0
STARLINK-30823,2023-171U,2026-07-13T07:01:48.726048,15.27583866,.00018671,43.0039,295.9119,266.2522,93.8116,0,U,58248,999,14894,.60778345E-4,.1411E-4,0
STARLINK-30873,2023-171V,2026-07-13T06:56:15.420768,15.27584853,.00020647,43.0043,295.8835,274.5250,85.5366,0,U,58249,999,14894,.42457843E-4,.906E-5,0
STARLINK-30808,2023-171W,2026-07-13T06:23:52.662336,15.30732611,.0004012,43.0020,295.6916,317.0449,43.0090,0,U,58250,999,14894,.13154949E-2,.39841E-3,0
STARLINK-30881,2023-171X,2026-07-13T07:07:20.378496,15.27581890,.00008272,43.0010,295.8548,309.0822,50.9956,0,U,58251,999,14894,.20242624E-4,.295E-5,0
STARLINK-30883,2023-171Y,2026-07-12T08:41:24.938880,15.27579127,.00018808,43.0002,300.9584,253.4362,106.6283,0,U,58252,999,14880,-.10349687E-4,-.547E-5,0
ZHONGXING-6E,2023-172A,2026-07-10T17:43:38.672256,1.00266240,.00021744,0.0182,60.2036,50.2192,199.5949,0,U,58253,999,989,0,-.352E-5,0
ORBASTRO-PC-1,2023-174C,2026-07-13T06:56:04.331328,15.49988451,.00069962,97.3774,280.9147,83.5948,276.6100,0,U,58258,999,14951,.30517108E-3,.17028E-3,0
