STARLINK-30840          
1 58223U 23170T   26193.50043108  .00003533  00000+0  13786-3 0  9996
2 58223  43.0030 209.6871 0001332 271.7502  88.3197 15.27580528149382
STARLINK-30875          
1 58224U 23170U   26193.52469221  .00003637  00000+0  14163-3 0  9992
2 58224  42.9985 209.0095 0002305 291.1556  68.9049 15.27579368149399
STARLINK-30872          
1 58225U 23170V   26194.00522389  .00000137  00000+0  14493-4 0  9991
2 58225  43.0015  64.5967 0001076 272.5515  87.5214 15.27579610151136
STARLINK-30865          
1 58226U 23170W   26194.05041293 -.00000079  00000+0  66234-5 0  9994
2 58226  43.0016 195.0407 0000502 248.2456 111.8342 15.27578755149605
STARLINK-30874          
1 58227U 23170X   26194.07348168  .00000157  00000+0  15242-4 0  9996
2 58227  43.0017 206.2528 0001082 259.5887 100.4843 15.27579754149478
STARLINK-30871          
1 58228U 23170Y   26194.07733598  .00000425  00000+0  24973-4 0  9991
2 58228  43.0018 206.2784 0001391 266.9990  93.0703 15.27576362149478
STARLINK-30861          
1 58230U 23171A   26194.27297523  .00033128  00000+0  10175-2 0  9993
2 58230  42.9900 295.6920 0010639 340.2730  19.7711 15.33076773148949
STARLINK-30867          
1 58231U 23171B   26194.33261465  .00000162  00000+0  15432-4 0  9992
2 58231  43.0059 295.3620 0001839 257.4856 102.5790 15.27581398148957
STARLINK-30880          
1 58232U 23171C   26194.32876183 -.00013264  00000+0 -47433-3 0  9995
2 58232  43.0046 295.3363 0001448 255.6216 104.4475 15.27511875148958
STARLINK-30777          
1 58233U 23171D   26194.31733834  .00000473  00000+0  26706-4 0  9997
2 58233  43.0001 296.0964 0001345 265.6130  94.4568 15.27580281148944
STARLINK-30860          
1 58234U 23171E   26194.32490572 -.00003806  00000+0 -12881-3 0  9991
2 58234  43.0070 295.3070 0001600 262.0628  98.0042 15.27586817148957
STARLINK-30853          
1 58236U 23171G   26194.31349341 -.00000668  00000+0 -14730-4 0  9998
2 58236  43.0046 296.0813 0003076 317.8729  42.1886 15.27576127148943
STARLINK-30866          
1 58237U 23171H   26194.28523507 -.00001685  00000+0 -51684-4 0  9992
2 58237  42.9979 295.8463 0002551 168.1815 191.9097 15.27586607148946
STARLINK-30817          
1 58238U 23171J   26194.30962467  .00000264  00000+0  19140-4 0  9999
2 58238  43.0020 296.0321 0001543 238.6128 121.4573 15.27579182148949
STARLINK-30847          
1 58239U 23171K   26194.30578164 -.00001242  00000+0 -35645-4 0  9994
2 58239  42.9991 296.0067 0001265 253.9619 106.1093 15.27568801148941
STARLINK-30848          
1 58240U 23171L   26194.28652404 -.00000486  00000+0 -81524-5 0  9990
2 58240  43.0054 295.8574 0001417 273.5995  86.4695 15.27571210148945
STARLINK-30843          
1 58241U 23171M   26194.30191917  .00000122  00000+0  13964-4 0  9998
2 58241  43.0014 295.9691 0001173 272.5703  87.5014 15.27577947148960
STARLINK-30877          
1 58242U 23171N   26194.28135898  .00001046  00000+0  47535-4 0  9999
2 58242  43.0035 295.8159 0001708 245.8719 114.1954 15.27583572148945
STARLINK-30864          
1 58243U 23171P   26194.29549268  .00000029  00000+0  10577-4 0  9997
2 58243  42.9995 295.9332 0001428 246.5856 113.4846 15.27579473148848
STARLINK-30854          
1 58244U 23171Q   26194.29934689  .00001691  00000+0  70954-4 0  9994
2 58244  43.0027 295.9618 0001932 276.9478  83.1154 15.27584694148948
STARLINK-30849          
1 58245U 23171R   26193.76856449 -.00000022  00000+0  87409-5 0  9995
2 58245  43.0025 298.8577 0001905 274.8558  85.2076 15.27568706148862
STARLINK-30886          
1 58246U 23171S   26194.28393092  .00001323  00000+0  57568-4 0  9990
2 58246  43.0041 295.8485 0000991 255.5470 104.5272 15.27586302148943
STARLINK-30850          
1 58247U 23171T   26193.76469150  .00001559  00000+0  66147-4 0  9996
2 58247  43.0019 298.8277 0001285 248.8974 111.1741 15.27586331148860
STARLINK-30823          
1 58248U 23171U   26194.29292507  .00001411  00000+0  60778-4 0  9997
2 58248  43.0039 295.9119 0001867 266.2522  93.8116 15.27583866148946
STARLINK-30873          
1 58249U 23171V   26194.28906737  .00000906  00000+0  42458-4 0  9997
2 58249  43.0043 295.8835 0002064 274.5250  85.5366 15.27584853148948
STARLINK-30808          
1 58250U 23171W   26194.26658174  .00039841  00000+0  13155-2 0  9996
2 58250  43.0020 295.6916 0004012 317.0449  43.0090 15.30732611148945
STARLINK-30881          
1 58251U 23171X   26194.29676364  .00000295  00000+0  20243-4 0  9990
2 58251  43.0010 295.8548 0000827 309.0822  50.9956 15.27581890148949
STARLINK-30883          
1 58252U 23171Y   26193.36209420 -.00000547  00000+0 -10350-4 0  9993
2 58252  43.0002 300.9584 0001880 253.4362 106.6283 15.27579127148807
ZHONGXING-6E            
1 58253U 23172A   26191.73864204 -.00000352  00000+0  00000+0 0  9990
2 58253   0.0182  60.2036 0002174  50.2192 199.5949  1.00266240  9899
ORBASTRO-PC-1           
1 58258U 23174C   26194.28893902  .00017028  00000+0  30517-3 0  9994
2 58258  97.3774 280.9147 0006996  83.5948 276.6100 15.49988451149511
